[{"OBJECT_NAME":"STARLINK-33583","OBJECT_ID":"2025-071L","EPOCH":"2026-03-09T12:05:00.596832","MEAN_MOTION":15.30189691,"ECCENTRICITY":0.00011327,"INCLINATION":53.158,"RA_OF_ASC_NODE":143.4639,"ARG_OF_PERICENTER":92.0349,"MEAN_ANOMALY":268.0781,"EPHEMERIS_TYPE":0,"CLASSIFICATION_TYPE":"U","NORAD_CAT_ID":63503,"ELEMENT_SET_NO":999,"REV_AT_EPOCH":5271,"BSTAR":0.00075995104,"MEAN_MOTION_DOT":0.00022209,"MEAN_MOTION_DDOT":0},{"OBJECT_NAME":"OBJECT A","OBJECT_ID":"2025-234A","EPOCH":"2026-03-09T23:03:34.210368","MEAN_MOTION":15.32505956,"ECCENTRICITY":0.00130678,"INCLINATION":97.4388,"RA_OF_ASC_NODE":139.352,"ARG_OF_PERICENTER":148.634,"MEAN_ANOMALY":211.5684,"EPHEMERIS_TYPE":0,"CLASSIFICATION_TYPE":"U","NORAD_CAT_ID":66053,"ELEMENT_SET_NO":999,"REV_AT_EPOCH":2164,"BSTAR":0.0014840662,"MEAN_MOTION_DOT":0.00046856,"MEAN_MOTION_DDOT":0}]
